[{"OBJECT_NAME":"STARLINK-31546","OBJECT_ID":"2024-068R","EPOCH":"2026-03-08T23:09:14.990976","MEAN_MOTION":15.27574269,"ECCENTRICITY":9.102e-5,"INCLINATION":43.0063,"RA_OF_ASC_NODE":34.9991,"ARG_OF_PERICENTER":273.1701,"MEAN_ANOMALY":86.9046,"EPHEMERIS_TYPE":0,"CLASSIFICATION_TYPE":"U","NORAD_CAT_ID":59470,"ELEMENT_SET_NO":999,"REV_AT_EPOCH":10845,"BSTAR":-2.5522893e-5,"MEAN_MOTION_DOT":-9.64e-6,"MEAN_MOTION_DDOT":0},{"OBJECT_NAME":"PEGASUS DEB","OBJECT_ID":"1994-029AER","EPOCH":"2026-02-26T06:39:21.581568","MEAN_MOTION":15.03561005,"ECCENTRICITY":0.01227406,"INCLINATION":81.7323,"RA_OF_ASC_NODE":356.2383,"ARG_OF_PERICENTER":77.7128,"MEAN_ANOMALY":283.7806,"EPHEMERIS_TYPE":0,"CLASSIFICATION_TYPE":"U","NORAD_CAT_ID":39306,"ELEMENT_SET_NO":999,"REV_AT_EPOCH":9218,"BSTAR":0.0046128236,"MEAN_MOTION_DOT":0.00074995,"MEAN_MOTION_DDOT":0}]
